start=new Date('2022-04-10T00:00:00.000Z').valueOf();
sats=[{"CLASSIFICATION_TYPE":"U","MEAN_MOTION_DDOT":"0.0000000000000","SEMIMAJOR_AXIS":"6728.017","FILE":"3395351","MEAN_ANOMALY":"59.4979","ELEMENT_SET_NO":"999","MEAN_MOTION":"15.73157254","RA_OF_ASC_NODE":"265.3781","OBJECT_ID":"2022-016AR","TLE_LINE1":"1 51753U 22016AR  22099.91667824  .00132229  00000-0  93349-3 0  9997","REF_FRAME":"TEME","INCLINATION":"53.2136","DECAY_DATE":null,"ECCENTRICITY":"0.00015640","GP_ID":"200866210","APOAPSIS":"350.934","EPOCH":"2022-04-09T22:00:00.999936","REV_AT_EPOCH":"370","MEAN_MOTION_DOT":"0.00132229","OBJECT_TYPE":"PAYLOAD","ARG_OF_PERICENTER":"46.2969","RCS_SIZE":"LARGE","TIME_SYSTEM":"UTC","EPHEMERIS_TYPE":"0","NORAD_CAT_ID":"51753","SITE":"AFETR","BSTAR":"0.00093349000000","MEAN_ELEMENT_THEORY":"SGP4","OBJECT_NAME":"STARLINK-3507","CENTER_NAME":"EARTH","PERIAPSIS":"348.830","TLE_LINE2":"2 51753  53.2136 265.3781 0001564  46.2969  59.4979 15.73157254  3700","LAUNCH_DATE":"2022-02-21","COUNTRY_CODE":"US","PERIOD":"91.536"},{"OBJECT_NAME":"STARLINK-3457","CENTER_NAME":"EARTH","TLE_LINE2":"2 51754  53.2137 265.3735 0001449  43.6390  64.7197 15.73116483  8718","PERIAPSIS":"349.023","LAUNCH_DATE":"2022-02-21","COUNTRY_CODE":"US","PERIOD":"91.538","MEAN_MOTION_DOT":"0.00131370","OBJECT_TYPE":"PAYLOAD","ARG_OF_PERICENTER":"43.6390","RCS_SIZE":"LARGE","TIME_SYSTEM":"UTC","EPHEMERIS_TYPE":"0","NORAD_CAT_ID":"51754","SITE":"AFETR","BSTAR":"0.00092917000000","MEAN_ELEMENT_THEORY":"SGP4","TLE_LINE1":"1 51754U 22016AS  22099.91667824  .00131370  00000-0  92917-3 0  9994","INCLINATION":"53.2137","REF_FRAME":"TEME","DECAY_DATE":null,"GP_ID":"200840375","ECCENTRICITY":"0.00014490","APOAPSIS":"350.973","EPOCH":"2022-04-09T22:00:00.999936","REV_AT_EPOCH":"871","CLASSIFICATION_TYPE":"U","MEAN_MOTION_DDOT":"0.0000000000000","SEMIMAJOR_AXIS":"6728.133","MEAN_MOTION":"15.73116483","FILE":"3395328","ELEMENT_SET_NO":"999","MEAN_ANOMALY":"64.7197","OBJECT_ID":"2022-016AS","RA_OF_ASC_NODE":"265.3735"},{"MEAN_ANOMALY":"53.1525","FILE":"3395302","ELEMENT_SET_NO":"999","MEAN_MOTION":"15.73179363","OBJECT_ID":"2022-016AT","RA_OF_ASC_NODE":"265.3738","MEAN_MOTION_DDOT":"0.0000000000000","CLASSIFICATION_TYPE":"U","SEMIMAJOR_AXIS":"6727.954","APOAPSIS":"350.775","EPOCH":"2022-04-09T22:00:00.999936","REV_AT_EPOCH":"871","TLE_LINE1":"1 51755U 22016AT  22099.91667824  .00136573  00000-0  96261-3 0  9991","REF_FRAME":"TEME","INCLINATION":"53.2136","DECAY_DATE":null,"GP_ID":"200840806","ECCENTRICITY":"0.00014210","TIME_SYSTEM":"UTC","RCS_SIZE":"LARGE","NORAD_CAT_ID":"51755","EPHEMERIS_TYPE":"0","SITE":"AFETR","MEAN_ELEMENT_THEORY":"SGP4","BSTAR":"0.00096261000000","OBJECT_TYPE":"PAYLOAD","MEAN_MOTION_DOT":"0.00136573","ARG_OF_PERICENTER":"54.5266","COUNTRY_CODE":"US","PERIOD":"91.534","OBJECT_NAME":"STARLINK-3460","TLE_LINE2":"2 51755  53.2136 265.3738 0001421  54.5266  53.1525 15.73179363  8717","PERIAPSIS":"348.863","CENTER_NAME":"EARTH","LAUNCH_DATE":"2022-02-21"},{"FILE":"3395302","MEAN_ANOMALY":"66.1275","ELEMENT_SET_NO":"999","MEAN_MOTION":"15.73166003","OBJECT_ID":"2022-016AU","RA_OF_ASC_NODE":"265.3734","MEAN_MOTION_DDOT":"0.0000000000000","CLASSIFICATION_TYPE":"U","SEMIMAJOR_AXIS":"6727.992","APOAPSIS":"350.842","EPOCH":"2022-04-09T22:00:00.999936","REV_AT_EPOCH":"866","INCLINATION":"53.2139","TLE_LINE1":"1 51756U 22016AU  22099.91667824  .00133598  00000-0  94261-3 0  9994","REF_FRAME":"TEME","DECAY_DATE":null,"ECCENTRICITY":"0.00014640","GP_ID":"200840353","TIME_SYSTEM":"UTC","RCS_SIZE":"LARGE","NORAD_CAT_ID":"51756","EPHEMERIS_TYPE":"0","SITE":"AFETR","MEAN_ELEMENT_THEORY":"SGP4","BSTAR":"0.00094261000000","OBJECT_TYPE":"PAYLOAD","MEAN_MOTION_DOT":"0.00133598","ARG_OF_PERICENTER":"42.8586","COUNTRY_CODE":"US","PERIOD":"91.535","OBJECT_NAME":"STARLINK-3513","TLE_LINE2":"2 51756  53.2139 265.3734 0001464  42.8586  66.1275 15.73166003  8666","PERIAPSIS":"348.872","CENTER_NAME":"EARTH","LAUNCH_DATE":"2022-02-21"},{"APOAPSIS":"351.058","EPOCH":"2022-04-09T22:00:00.999936","REV_AT_EPOCH":"370","TLE_LINE1":"1 51757U 22016AV  22099.91667824  .00130375  00000-0  92196-3 0  9990","INCLINATION":"53.2136","REF_FRAME":"TEME","DECAY_DATE":null,"GP_ID":"200865887","ECCENTRICITY":"0.00016090","FILE":"3395351","MEAN_ANOMALY":"53.2162","ELEMENT_SET_NO":"999","MEAN_MOTION":"15.73124455","OBJECT_ID":"2022-016AV","RA_OF_ASC_NODE":"265.3704","CLASSIFICATION_TYPE":"U","MEAN_MOTION_DDOT":"0.0000000000000","SEMIMAJOR_AXIS":"6728.111","COUNTRY_CODE":"US","PERIOD":"91.538","OBJECT_NAME":"STARLINK-3459","CENTER_NAME":"EARTH","PERIAPSIS":"348.893","TLE_LINE2":"2 51757  53.2136 265.3704 0001609  56.4230  53.2162 15.73124455  3706","LAUNCH_DATE":"2022-02-21","RCS_SIZE":"LARGE","TIME_SYSTEM":"UTC","EPHEMERIS_TYPE":"0","NORAD_CAT_ID":"51757","SITE":"AFETR","BSTAR":"0.00092196000000","MEAN_ELEMENT_THEORY":"SGP4","MEAN_MOTION_DOT":"0.00130375","OBJECT_TYPE":"PAYLOAD","ARG_OF_PERICENTER":"56.4230"},{"EPHEMERIS_TYPE":"0","NORAD_CAT_ID":"51758","TIME_SYSTEM":"UTC","RCS_SIZE":"LARGE","BSTAR":"0.00092684000000","MEAN_ELEMENT_THEORY":"SGP4","SITE":"AFETR","MEAN_MOTION_DOT":"0.00131323","OBJECT_TYPE":"PAYLOAD","ARG_OF_PERICENTER":"40.3101","COUNTRY_CODE":"US","PERIOD":"91.535","OBJECT_NAME":"STARLINK-3458","LAUNCH_DATE":"2022-02-21","CENTER_NAME":"EARTH","TLE_LINE2":"2 51758  53.2140 265.3706 0001791  40.3101  69.9507 15.73166800  8730","PERIAPSIS":"348.650","RA_OF_ASC_NODE":"265.3706","OBJECT_ID":"2022-016AW","FILE":"3395328","MEAN_MOTION":"15.73166800","ELEMENT_SET_NO":"999","MEAN_ANOMALY":"69.9507","MEAN_MOTION_DDOT":"0.0000000000000","CLASSIFICATION_TYPE":"U","SEMIMAJOR_AXIS":"6727.990","APOAPSIS":"351.060","REV_AT_EPOCH":"873","EPOCH":"2022-04-09T22:00:00.999936","REF_FRAME":"TEME","TLE_LINE1":"1 51758U 22016AW  22099.91667824  .00131323  00000-0  92684-3 0  9997","INCLINATION":"53.2140","GP_ID":"200840378","ECCENTRICITY":"0.00017910","DECAY_DATE":null},{"OBJECT_NAME":"STARLINK-3456","CENTER_NAME":"EARTH","TLE_LINE2":"2 51759  53.2135 265.3673 0001595  45.0673  65.7810 15.73217646  8732","PERIAPSIS":"348.637","LAUNCH_DATE":"2022-02-21","COUNTRY_CODE":"US","PERIOD":"91.532","MEAN_MOTION_DOT":"0.00025419","OBJECT_TYPE":"PAYLOAD","ARG_OF_PERICENTER":"45.0673","TIME_SYSTEM":"UTC","RCS_SIZE":"LARGE","EPHEMERIS_TYPE":"0","NORAD_CAT_ID":"51759","SITE":"AFETR","BSTAR":"0.00018484000000","MEAN_ELEMENT_THEORY":"SGP4","INCLINATION":"53.2135","TLE_LINE1":"1 51759U 22016AX  22099.91667824  .00025419  00000-0  18484-3 0  9992","REF_FRAME":"TEME","DECAY_DATE":null,"ECCENTRICITY":"0.00015950","GP_ID":"200840805","APOAPSIS":"350.783","EPOCH":"2022-04-09T22:00:00.999936","REV_AT_EPOCH":"873","MEAN_MOTION_DDOT":"0.0000000000000","CLASSIFICATION_TYPE":"U","SEMIMAJOR_AXIS":"6727.845","MEAN_ANOMALY":"65.7810","FILE":"3395302","ELEMENT_SET_NO":"999","MEAN_MOTION":"15.73217646","RA_OF_ASC_NODE":"265.3673","OBJECT_ID":"2022-016AX"},{"REV_AT_EPOCH":"804","EPOCH":"2022-04-09T22:00:00.999936","APOAPSIS":"350.565","GP_ID":"200840599","ECCENTRICITY":"0.00011010","DECAY_DATE":null,"INCLINATION":"53.2156","TLE_LINE1":"1 51768U 22017A   22099.91667824  .00105150  00000-0  74500-3 0  9995","REF_FRAME":"TEME","OBJECT_ID":"2022-017A","RA_OF_ASC_NODE":"289.4736","FILE":"3395318","MEAN_ANOMALY":"343.2934","ELEMENT_SET_NO":"999","MEAN_MOTION":"15.73177381","SEMIMAJOR_AXIS":"6727.960","CLASSIFICATION_TYPE":"U","MEAN_MOTION_DDOT":"0.0000000000000","PERIOD":"91.534","COUNTRY_CODE":"US","LAUNCH_DATE":"2022-02-25","CENTER_NAME":"EARTH","PERIAPSIS":"349.084","TLE_LINE2":"2 51768  53.2156 289.4736 0001101  48.2985 343.2934 15.73177381  8042","OBJECT_NAME":"STARLINK-3622","BSTAR":"0.00074500000000","MEAN_ELEMENT_THEORY":"SGP4","SITE":"AFWTR","NORAD_CAT_ID":"51768","EPHEMERIS_TYPE":"0","TIME_SYSTEM":"UTC","RCS_SIZE":"LARGE","ARG_OF_PERICENTER":"48.2985","MEAN_MOTION_DOT":"0.00105150","OBJECT_TYPE":"PAYLOAD"},{"OBJECT_TYPE":"PAYLOAD","MEAN_MOTION_DOT":"-0.00009564","ARG_OF_PERICENTER":"55.8559","TIME_SYSTEM":"UTC","RCS_SIZE":"LARGE","EPHEMERIS_TYPE":"0","NORAD_CAT_ID":"51769","SITE":"AFWTR","MEAN_ELEMENT_THEORY":"SGP4","BSTAR":"-0.00006387900000","OBJECT_NAME":"STARLINK-3621","PERIAPSIS":"349.099","TLE_LINE2":"2 51769  53.2152 289.4700 0001086  55.8559 337.1275 15.73175521  8047","CENTER_NAME":"EARTH","LAUNCH_DATE":"2022-02-25","COUNTRY_CODE":"US","PERIOD":"91.535","MEAN_MOTION_DDOT":"0.0000000000000","CLASSIFICATION_TYPE":"U","SEMIMAJOR_AXIS":"6727.965","MEAN_MOTION":"15.73175521","FILE":"3395316","ELEMENT_SET_NO":"999","MEAN_ANOMALY":"337.1275","RA_OF_ASC_NODE":"289.4700","OBJECT_ID":"2022-017B","INCLINATION":"53.2152","TLE_LINE1":"1 51769U 22017B   22099.91667824 -.00009564  00000-0 -63879-4 0  9998","REF_FRAME":"TEME","DECAY_DATE":null,"ECCENTRICITY":"0.00010860","GP_ID":"200840576","APOAPSIS":"350.561","EPOCH":"2022-04-09T22:00:00.999936","REV_AT_EPOCH":"804"},{"OBJECT_ID":"2022-017C","RA_OF_ASC_NODE":"289.4682","ELEMENT_SET_NO":"999","FILE":"3395322","MEAN_ANOMALY":"331.8461","MEAN_MOTION":"15.73155884","CLASSIFICATION_TYPE":"U","MEAN_MOTION_DDOT":"0.0000000000000","SEMIMAJOR_AXIS":"6728.021","APOAPSIS":"350.485","REV_AT_EPOCH":"804","EPOCH":"2022-04-09T22:00:00.999936","INCLINATION":"53.2134","TLE_LINE1":"1 51770U 22017C   22099.91667824  .00105732  00000-0  74973-3 0  9998","REF_FRAME":"TEME","ECCENTRICITY":"0.00008910","GP_ID":"200840617","DECAY_DATE":null,"EPHEMERIS_TYPE":"0","NORAD_CAT_ID":"51770","RCS_SIZE":"LARGE","TIME_SYSTEM":"UTC","MEAN_ELEMENT_THEORY":"SGP4","BSTAR":"0.00074973000000","SITE":"AFWTR","OBJECT_TYPE":"PAYLOAD","MEAN_MOTION_DOT":"0.00105732","ARG_OF_PERICENTER":"60.3612","COUNTRY_CODE":"US","PERIOD":"91.536","OBJECT_NAME":"STARLINK-3612","LAUNCH_DATE":"2022-02-25","PERIAPSIS":"349.286","TLE_LINE2":"2 51770  53.2134 289.4682 0000891  60.3612 331.8461 15.73155884  8040","CENTER_NAME":"EARTH"}];
